ORBCOMM FM108           
1 41187U 15081J   24156.51341299  .00001386  00000+0  34475-3 0  9991
2 41187  47.0050  88.5677 0002807   2.7286 357.3613 14.56681733451701
ORBCOMM FM117           
1 41188U 15081K   24156.89134234  .00001397  00000+0  34750-3 0  9990
2 41188  47.0011  85.6780 0003089  19.7690 340.3314 14.56638861451807
ORBCOMM FM116           
1 41189U 15081L   24156.74274310  .00000691  00000+0  19084-3 0  9994
2 41189  47.0003 176.1938 0000997 125.8528 234.2449 14.56628869450596
